BANDWAGON-2 OBJECT D    
1 62380U 24247D   26068.52261193  .00011259  00000+0  40119-3 0  9994
2 62380  44.9954 115.6710 0003488 351.1453   8.9368 15.29076102 67732
STARLINK-34115          
1 63972U 25099W   26068.33295859  .00028011  00000+0  10236-2 0  9993
2 63972  43.0002 174.6067 0001780 253.7711 106.2945 15.27578809 47326
